start=new Date('2022-03-24T00:00:00.000Z').valueOf();
sats=[{"TLE_LINE2":"2 48442  53.0542 197.0343 0001993  59.4292 300.6893 15.06391815 48542","EPHEMERIS_TYPE":"0","GP_ID":"199537927","REV_AT_EPOCH":"4854","SITE":"AFETR","MEAN_ANOMALY":"300.6893","ARG_OF_PERICENTER":"59.4292","MEAN_MOTION":"15.06391815","FILE":"3371636","LAUNCH_DATE":"2021-05-09","NORAD_CAT_ID":"48442","MEAN_ELEMENT_THEORY":"SGP4","COUNTRY_CODE":"US","RCS_SIZE":"LARGE","OBJECT_TYPE":"PAYLOAD","ELEMENT_SET_NO":"999","CENTER_NAME":"EARTH","INCLINATION":"53.0542","TLE_LINE1":"1 48442U 21040Q   22082.78072379 -.00000536  00000-0 -17070-4 0  9991","RA_OF_ASC_NODE":"197.0343","TIME_SYSTEM":"UTC","ECCENTRICITY":"0.00019930","MEAN_MOTION_DDOT":"0.0000000000000","OBJECT_NAME":"STARLINK-2644","REF_FRAME":"TEME","SEMIMAJOR_AXIS":"6925.374","APOAPSIS":"548.619","PERIAPSIS":"545.858","EPOCH":"2022-03-23T18:44:14.535456","CLASSIFICATION_TYPE":"U","BSTAR":"-0.00001707000000","PERIOD":"95.593","OBJECT_ID":"2021-040Q","DECAY_DATE":null,"MEAN_MOTION_DOT":"-0.00000536"},{"ELEMENT_SET_NO":"999","OBJECT_TYPE":"PAYLOAD","TLE_LINE1":"1 48443U 21040R   22082.77703627  .00003333  00000-0  24251-3 0  9992","INCLINATION":"53.0549","CENTER_NAME":"EARTH","RA_OF_ASC_NODE":"197.0568","ECCENTRICITY":"0.00014350","TIME_SYSTEM":"UTC","OBJECT_NAME":"STARLINK-2663","REF_FRAME":"TEME","MEAN_MOTION_DDOT":"0.0000000000000","APOAPSIS":"548.188","PERIAPSIS":"546.201","SEMIMAJOR_AXIS":"6925.329","BSTAR":"0.00024251000000","EPOCH":"2022-03-23T18:38:55.933728","CLASSIFICATION_TYPE":"U","MEAN_MOTION_DOT":"0.00003333","DECAY_DATE":null,"PERIOD":"95.592","OBJECT_ID":"2021-040R","EPHEMERIS_TYPE":"0","TLE_LINE2":"2 48443  53.0549 197.0568 0001435  68.9982 291.1160 15.06406275 48549","REV_AT_EPOCH":"4854","GP_ID":"199537176","SITE":"AFETR","MEAN_ANOMALY":"291.1160","MEAN_MOTION":"15.06406275","FILE":"3371636","ARG_OF_PERICENTER":"68.9982","NORAD_CAT_ID":"48443","MEAN_ELEMENT_THEORY":"SGP4","LAUNCH_DATE":"2021-05-09","RCS_SIZE":"LARGE","COUNTRY_CODE":"US"},{"TLE_LINE1":"1 48444U 21040S   22082.77334432  .00000803  00000-0  72789-4 0  9996","INCLINATION":"53.0559","CENTER_NAME":"EARTH","ELEMENT_SET_NO":"999","OBJECT_TYPE":"PAYLOAD","ECCENTRICITY":"0.00014300","TIME_SYSTEM":"UTC","RA_OF_ASC_NODE":"197.0798","PERIAPSIS":"546.224","APOAPSIS":"548.204","SEMIMAJOR_AXIS":"6925.349","OBJECT_NAME":"STARLINK-2645","REF_FRAME":"TEME","MEAN_MOTION_DDOT":"0.0000000000000","DECAY_DATE":null,"MEAN_MOTION_DOT":"0.00000803","PERIOD":"95.592","OBJECT_ID":"2021-040S","BSTAR":"0.00007278900000","EPOCH":"2022-03-23T18:33:36.949248","CLASSIFICATION_TYPE":"U","TLE_LINE2":"2 48444  53.0559 197.0798 0001430  70.6500 289.4643 15.06399841 48543","EPHEMERIS_TYPE":"0","SITE":"AFETR","MEAN_ANOMALY":"289.4643","REV_AT_EPOCH":"4854","GP_ID":"199537426","MEAN_MOTION":"15.06399841","FILE":"3371636","ARG_OF_PERICENTER":"70.6500","RCS_SIZE":"LARGE","COUNTRY_CODE":"US","NORAD_CAT_ID":"48444","MEAN_ELEMENT_THEORY":"SGP4","LAUNCH_DATE":"2021-05-09"},{"OBJECT_ID":"2021-040T","PERIOD":"95.592","MEAN_MOTION_DOT":"0.00000359","DECAY_DATE":null,"CLASSIFICATION_TYPE":"U","EPOCH":"2022-03-23T16:52:46.129152","BSTAR":"0.00004298100000","SEMIMAJOR_AXIS":"6925.340","PERIAPSIS":"546.042","APOAPSIS":"548.369","MEAN_MOTION_DDOT":"0.0000000000000","REF_FRAME":"TEME","OBJECT_NAME":"STARLINK-2634","TIME_SYSTEM":"UTC","ECCENTRICITY":"0.00016800","RA_OF_ASC_NODE":"197.3987","INCLINATION":"53.0549","CENTER_NAME":"EARTH","TLE_LINE1":"1 48445U 21040T   22082.70331168  .00000359  00000-0  42981-4 0  9990","OBJECT_TYPE":"PAYLOAD","ELEMENT_SET_NO":"999","COUNTRY_CODE":"US","RCS_SIZE":"LARGE","LAUNCH_DATE":"2021-05-09","MEAN_ELEMENT_THEORY":"SGP4","NORAD_CAT_ID":"48445","ARG_OF_PERICENTER":"54.2265","FILE":"3371636","MEAN_MOTION":"15.06402707","MEAN_ANOMALY":"305.8880","SITE":"AFETR","GP_ID":"199537677","REV_AT_EPOCH":"4853","TLE_LINE2":"2 48445  53.0549 197.3987 0001680  54.2265 305.8880 15.06402707 48530","EPHEMERIS_TYPE":"0"},{"GP_ID":"199538428","REV_AT_EPOCH":"4855","SITE":"AFETR","MEAN_ANOMALY":"317.7458","TLE_LINE2":"2 48446  53.0557 196.8123 0001294  42.3631 317.7458 15.06398199 48556","EPHEMERIS_TYPE":"0","LAUNCH_DATE":"2021-05-09","NORAD_CAT_ID":"48446","MEAN_ELEMENT_THEORY":"SGP4","COUNTRY_CODE":"US","RCS_SIZE":"LARGE","ARG_OF_PERICENTER":"42.3631","MEAN_MOTION":"15.06398199","FILE":"3371636","RA_OF_ASC_NODE":"196.8123","TIME_SYSTEM":"UTC","ECCENTRICITY":"0.00012940","OBJECT_TYPE":"PAYLOAD","ELEMENT_SET_NO":"999","INCLINATION":"53.0557","CENTER_NAME":"EARTH","TLE_LINE1":"1 48446U 21040U   22082.83232359  .00001171  00000-0  97491-4 0  9996","EPOCH":"2022-03-23T19:58:32.758176","CLASSIFICATION_TYPE":"U","BSTAR":"0.00009749100000","PERIOD":"95.592","OBJECT_ID":"2021-040U","MEAN_MOTION_DOT":"0.00001171","DECAY_DATE":null,"MEAN_MOTION_DDOT":"0.0000000000000","OBJECT_NAME":"STARLINK-2247","REF_FRAME":"TEME","SEMIMAJOR_AXIS":"6925.354","APOAPSIS":"548.115","PERIAPSIS":"546.323"},{"MEAN_MOTION_DDOT":"0.0000000000000","REF_FRAME":"TEME","OBJECT_NAME":"STARLINK-2269","SEMIMAJOR_AXIS":"6925.361","APOAPSIS":"548.234","PERIAPSIS":"546.218","CLASSIFICATION_TYPE":"U","EPOCH":"2022-03-23T11:55:32.616192","BSTAR":"-0.00012043000000","OBJECT_ID":"2021-040V","PERIOD":"95.592","DECAY_DATE":null,"MEAN_MOTION_DOT":"-0.00002075","OBJECT_TYPE":"PAYLOAD","ELEMENT_SET_NO":"999","INCLINATION":"53.0552","CENTER_NAME":"EARTH","TLE_LINE1":"1 48447U 21040V   22082.49690528 -.00002075  00000-0 -12043-3 0  9990","RA_OF_ASC_NODE":"198.3211","TIME_SYSTEM":"UTC","ECCENTRICITY":"0.00014560","ARG_OF_PERICENTER":"72.5019","FILE":"3371208","MEAN_MOTION":"15.06395906","LAUNCH_DATE":"2021-05-09","MEAN_ELEMENT_THEORY":"SGP4","NORAD_CAT_ID":"48447","COUNTRY_CODE":"US","RCS_SIZE":"LARGE","EPHEMERIS_TYPE":"0","TLE_LINE2":"2 48447  53.0552 198.3211 0001456  72.5019 287.6129 15.06395906 48500","GP_ID":"199476382","REV_AT_EPOCH":"4850","MEAN_ANOMALY":"287.6129","SITE":"AFETR"},{"SEMIMAJOR_AXIS":"6925.316","APOAPSIS":"548.204","PERIAPSIS":"546.159","MEAN_MOTION_DDOT":"0.0000000000000","REF_FRAME":"TEME","OBJECT_NAME":"STARLINK-2632","OBJECT_ID":"2021-040W","PERIOD":"95.591","DECAY_DATE":null,"MEAN_MOTION_DOT":"0.00009340","CLASSIFICATION_TYPE":"U","EPOCH":"2022-03-23T18:53:30.045984","BSTAR":"0.00064490000000","INCLINATION":"53.0538","CENTER_NAME":"EARTH","TLE_LINE1":"1 48448U 21040W   22082.78715331  .00009340  00000-0  64490-3 0  9996","OBJECT_TYPE":"PAYLOAD","ELEMENT_SET_NO":"999","TIME_SYSTEM":"UTC","ECCENTRICITY":"0.00014760","RA_OF_ASC_NODE":"197.0214","ARG_OF_PERICENTER":"62.8911","FILE":"3371636","MEAN_MOTION":"15.06410460","COUNTRY_CODE":"US","RCS_SIZE":"LARGE","LAUNCH_DATE":"2021-05-09","MEAN_ELEMENT_THEORY":"SGP4","NORAD_CAT_ID":"48448","EPHEMERIS_TYPE":"0","TLE_LINE2":"2 48448  53.0538 197.0214 0001476  62.8911 297.2228 15.06410460 48543","MEAN_ANOMALY":"297.2228","SITE":"AFETR","GP_ID":"199536926","REV_AT_EPOCH":"4854"},{"TIME_SYSTEM":"UTC","ECCENTRICITY":"0.00013620","RA_OF_ASC_NODE":"198.3387","CENTER_NAME":"EARTH","INCLINATION":"53.0547","TLE_LINE1":"1 48449U 21040X   22082.49322773  .00000614  00000-0  60099-4 0  9996","OBJECT_TYPE":"PAYLOAD","ELEMENT_SET_NO":"999","OBJECT_ID":"2021-040X","PERIOD":"95.592","MEAN_MOTION_DOT":"0.00000614","DECAY_DATE":null,"CLASSIFICATION_TYPE":"U","EPOCH":"2022-03-23T11:50:14.875872","BSTAR":"0.00006009900000","SEMIMAJOR_AXIS":"6925.360","PERIAPSIS":"546.282","APOAPSIS":"548.168","MEAN_MOTION_DDOT":"0.0000000000000","REF_FRAME":"TEME","OBJECT_NAME":"STARLINK-2655","MEAN_ANOMALY":"291.9902","SITE":"AFETR","GP_ID":"199512842","REV_AT_EPOCH":"4978","TLE_LINE2":"2 48449  53.0547 198.3387 0001362  68.1232 291.9902 15.06396186 49783","EPHEMERIS_TYPE":"0","COUNTRY_CODE":"US","RCS_SIZE":"LARGE","LAUNCH_DATE":"2021-05-09","MEAN_ELEMENT_THEORY":"SGP4","NORAD_CAT_ID":"48449","ARG_OF_PERICENTER":"68.1232","FILE":"3371508","MEAN_MOTION":"15.06396186"},{"ARG_OF_PERICENTER":"53.7987","MEAN_MOTION":"15.06405114","FILE":"3371636","COUNTRY_CODE":"US","RCS_SIZE":"LARGE","LAUNCH_DATE":"2021-05-09","NORAD_CAT_ID":"48450","MEAN_ELEMENT_THEORY":"SGP4","TLE_LINE2":"2 48450  53.0559 197.4585 0001389  53.7987 306.3130 15.06405114 48532","EPHEMERIS_TYPE":"0","SITE":"AFETR","MEAN_ANOMALY":"306.3130","GP_ID":"199537928","REV_AT_EPOCH":"4853","SEMIMAJOR_AXIS":"6925.333","PERIAPSIS":"546.236","APOAPSIS":"548.160","MEAN_MOTION_DDOT":"0.0000000000000","OBJECT_NAME":"STARLINK-2660","REF_FRAME":"TEME","PERIOD":"95.592","OBJECT_ID":"2021-040Y","DECAY_DATE":null,"MEAN_MOTION_DOT":"0.00000732","EPOCH":"2022-03-23T16:31:32.841120","CLASSIFICATION_TYPE":"U","BSTAR":"0.00006800800000","CENTER_NAME":"EARTH","INCLINATION":"53.0559","TLE_LINE1":"1 48450U 21040Y   22082.68857455  .00000732  00000-0  68008-4 0  9998","OBJECT_TYPE":"PAYLOAD","ELEMENT_SET_NO":"999","TIME_SYSTEM":"UTC","ECCENTRICITY":"0.00013890","RA_OF_ASC_NODE":"197.4585"},{"TIME_SYSTEM":"UTC","ECCENTRICITY":"0.00012880","RA_OF_ASC_NODE":"197.4790","CENTER_NAME":"EARTH","INCLINATION":"53.0544","TLE_LINE1":"1 48451U 21040Z   22082.68488431  .00000651  00000-0  62624-4 0  9991","OBJECT_TYPE":"PAYLOAD","ELEMENT_SET_NO":"999","PERIOD":"95.592","OBJECT_ID":"2021-040Z","DECAY_DATE":null,"MEAN_MOTION_DOT":"0.00000651","EPOCH":"2022-03-23T16:26:14.004384","CLASSIFICATION_TYPE":"U","BSTAR":"0.00006262400000","SEMIMAJOR_AXIS":"6925.350","APOAPSIS":"548.107","PERIAPSIS":"546.323","MEAN_MOTION_DDOT":"0.0000000000000","OBJECT_NAME":"STARLINK-2652","REF_FRAME":"TEME","SITE":"AFETR","MEAN_ANOMALY":"287.1934","GP_ID":"199537177","REV_AT_EPOCH":"4853","TLE_LINE2":"2 48451  53.0544 197.4790 0001288  72.9196 287.1934 15.06399562 48535","EPHEMERIS_TYPE":"0","COUNTRY_CODE":"US","RCS_SIZE":"LARGE","LAUNCH_DATE":"2021-05-09","NORAD_CAT_ID":"48451","MEAN_ELEMENT_THEORY":"SGP4","ARG_OF_PERICENTER":"72.9196","MEAN_MOTION":"15.06399562","FILE":"3371636"}];
